[{"OBJECT_NAME":"NOAA 1","OBJECT_ID":"1970-106A","EPOCH":"2026-03-18T23:34:32.594880","MEAN_MOTION":12.5404944,"ECCENTRICITY":0.00318969,"INCLINATION":101.3494,"RA_OF_ASC_NODE":116.6197,"ARG_OF_PERICENTER":162.7192,"MEAN_ANOMALY":260.1066,"EPHEMERIS_TYPE":0,"CLASSIFICATION_TYPE":"U","NORAD_CAT_ID":4793,"ELEMENT_SET_NO":999,"REV_AT_EPOCH":52938,"BSTAR":0.00010071287,"MEAN_MOTION_DOT":-2.6e-7,"MEAN_MOTION_DDOT":0},{"OBJECT_NAME":"NOAA 2 (ITOS-D)","OBJECT_ID":"1972-082A","EPOCH":"2026-03-19T07:18:54.156672","MEAN_MOTION":12.53212192,"ECCENTRICITY":0.0003873,"INCLINATION":102.0157,"RA_OF_ASC_NODE":95.8697,"ARG_OF_PERICENTER":346.6475,"MEAN_ANOMALY":25.2064,"EPHEMERIS_TYPE":0,"CLASSIFICATION_TYPE":"U","NORAD_CAT_ID":6235,"ELEMENT_SET_NO":999,"REV_AT_EPOCH":44369,"BSTAR":0.00010321078,"MEAN_MOTION_DOT":-3.0e-7,"MEAN_MOTION_DDOT":0},{"OBJECT_NAME":"NOAA 3","OBJECT_ID":"1973-086A","EPOCH":"2026-03-19T06:11:28.999392","MEAN_MOTION":12.4039206,"ECCENTRICITY":0.00061726,"INCLINATION":102.2902,"RA_OF_ASC_NODE":91.3298,"ARG_OF_PERICENTER":290.5839,"MEAN_ANOMALY":80.5808,"EPHEMERIS_TYPE":0,"CLASSIFICATION_TYPE":"U","NORAD_CAT_ID":6920,"ELEMENT_SET_NO":999,"REV_AT_EPOCH":37075,"BSTAR":7.1612309e-5,"MEAN_MOTION_DOT":-3.7e-7,"MEAN_MOTION_DDOT":0},{"OBJECT_NAME":"NOAA 4","OBJECT_ID":"1974-089A","EPOCH":"2026-03-19T06:49:26.785920","MEAN_MOTION":12.53201905,"ECCENTRICITY":0.00090269,"INCLINATION":102.007,"RA_OF_ASC_NODE":90.1186,"ARG_OF_PERICENTER":10.7984,"MEAN_ANOMALY":0.2544,"EPHEMERIS_TYPE":0,"CLASSIFICATION_TYPE":"U","NORAD_CAT_ID":7529,"ELEMENT_SET_NO":999,"REV_AT_EPOCH":34826,"BSTAR":1.3751093e-5,"MEAN_MOTION_DOT":-4.4e-7,"MEAN_MOTION_DDOT":0},{"OBJECT_NAME":"NOAA 5","OBJECT_ID":"1976-077A","EPOCH":"2026-03-19T04:54:07.560288","MEAN_MOTION":12.37828731,"ECCENTRICITY":0.00099229,"INCLINATION":102.2974,"RA_OF_ASC_NODE":63.7615,"ARG_OF_PERICENTER":143.0156,"MEAN_ANOMALY":228.6268,"EPHEMERIS_TYPE":0,"CLASSIFICATION_TYPE":"U","NORAD_CAT_ID":9057,"ELEMENT_SET_NO":999,"REV_AT_EPOCH":24334,"BSTAR":1.4603472e-5,"MEAN_MOTION_DOT":-4.4e-7,"MEAN_MOTION_DDOT":0},{"OBJECT_NAME":"TIROS N","OBJECT_ID":"1978-096A","EPOCH":"2026-03-19T07:52:59.189376","MEAN_MOTION":14.19342626,"ECCENTRICITY":0.00112341,"INCLINATION":98.4623,"RA_OF_ASC_NODE":103.4204,"ARG_OF_PERICENTER":138.5814,"MEAN_ANOMALY":221.6216,"EPHEMERIS_TYPE":0,"CLASSIFICATION_TYPE":"U","NORAD_CAT_ID":11060,"ELEMENT_SET_NO":999,"REV_AT_EPOCH":66600,"BSTAR":9.0063802e-5,"MEAN_MOTION_DOT":1.48e-6,"MEAN_MOTION_DDOT":0},{"OBJECT_NAME":"NOAA 6","OBJECT_ID":"1979-057A","EPOCH":"2026-03-19T07:26:50.492832","MEAN_MOTION":14.35440527,"ECCENTRICITY":0.00103017,"INCLINATION":98.5736,"RA_OF_ASC_NODE":108.4052,"ARG_OF_PERICENTER":158.6934,"MEAN_ANOMALY":201.4682,"EPHEMERIS_TYPE":0,"CLASSIFICATION_TYPE":"U","NORAD_CAT_ID":11416,"ELEMENT_SET_NO":999,"REV_AT_EPOCH":43806,"BSTAR":0.00010613416,"MEAN_MOTION_DOT":2.61e-6,"MEAN_MOTION_DDOT":0},{"OBJECT_NAME":"NOAA 7","OBJECT_ID":"1981-059A","EPOCH":"2026-03-19T04:31:25.573152","MEAN_MOTION":14.17775294,"ECCENTRICITY":0.00118382,"INCLINATION":98.804,"RA_OF_ASC_NODE":146.1582,"ARG_OF_PERICENTER":160.9795,"MEAN_ANOMALY":199.1824,"EPHEMERIS_TYPE":0,"CLASSIFICATION_TYPE":"U","NORAD_CAT_ID":12553,"ELEMENT_SET_NO":999,"REV_AT_EPOCH":31199,"BSTAR":3.8368104e-5,"MEAN_MOTION_DOT":3.4e-7,"MEAN_MOTION_DDOT":0},{"OBJECT_NAME":"NOAA 8","OBJECT_ID":"1983-022A","EPOCH":"2026-03-19T06:45:42.878592","MEAN_MOTION":14.29770626,"ECCENTRICITY":0.00151939,"INCLINATION":98.7371,"RA_OF_ASC_NODE":91.111,"ARG_OF_PERICENTER":157.7513,"MEAN_ANOMALY":202.4331,"EPHEMERIS_TYPE":0,"CLASSIFICATION_TYPE":"U","NORAD_CAT_ID":13923,"ELEMENT_SET_NO":999,"REV_AT_EPOCH":23822,"BSTAR":6.8350568e-5,"MEAN_MOTION_DOT":1.31e-6,"MEAN_MOTION_DDOT":0},{"OBJECT_NAME":"NOAA 9","OBJECT_ID":"1984-123A","EPOCH":"2026-03-19T07:25:32.368224","MEAN_MOTION":14.17042163,"ECCENTRICITY":0.00137645,"INCLINATION":99.1085,"RA_OF_ASC_NODE":102.8284,"ARG_OF_PERICENTER":242.5745,"MEAN_ANOMALY":128.1165,"EPHEMERIS_TYPE":0,"CLASSIFICATION_TYPE":"U","NORAD_CAT_ID":15427,"ELEMENT_SET_NO":999,"REV_AT_EPOCH":13069,"BSTAR":7.7253329e-5,"MEAN_MOTION_DOT":1.09e-6,"MEAN_MOTION_DDOT":0},{"OBJECT_NAME":"NOAA 10","OBJECT_ID":"1986-073A","EPOCH":"2026-03-19T06:22:20.267904","MEAN_MOTION":14.29148258,"ECCENTRICITY":0.00109324,"INCLINATION":98.7012,"RA_OF_ASC_NODE":71.6399,"ARG_OF_PERICENTER":258.3561,"MEAN_ANOMALY":112.3391,"EPHEMERIS_TYPE":0,"CLASSIFICATION_TYPE":"U","NORAD_CAT_ID":16969,"ELEMENT_SET_NO":999,"REV_AT_EPOCH":5657,"BSTAR":6.3381637e-5,"MEAN_MOTION_DOT":1.16e-6,"MEAN_MOTION_DDOT":0},{"OBJECT_NAME":"NOAA 11","OBJECT_ID":"1988-089A","EPOCH":"2026-03-19T06:09:07.694784","MEAN_MOTION":14.15822904,"ECCENTRICITY":0.00107307,"INCLINATION":98.6112,"RA_OF_ASC_NODE":26.975,"ARG_OF_PERICENTER":190.6806,"MEAN_ANOMALY":169.4142,"EPHEMERIS_TYPE":0,"CLASSIFICATION_TYPE":"U","NORAD_CAT_ID":19531,"ELEMENT_SET_NO":999,"REV_AT_EPOCH":93475,"BSTAR":4.8922029e-5,"MEAN_MOTION_DOT":5.4e-7,"MEAN_MOTION_DDOT":0},{"OBJECT_NAME":"NOAA 12","OBJECT_ID":"1991-032A","EPOCH":"2026-03-19T05:18:22.436928","MEAN_MOTION":14.26720646,"ECCENTRICITY":0.00125721,"INCLINATION":98.6164,"RA_OF_ASC_NODE":68.0745,"ARG_OF_PERICENTER":293.4702,"MEAN_ANOMALY":66.5156,"EPHEMERIS_TYPE":0,"CLASSIFICATION_TYPE":"U","NORAD_CAT_ID":21263,"ELEMENT_SET_NO":999,"REV_AT_EPOCH":81213,"BSTAR":4.57277e-5,"MEAN_MOTION_DOT":6.7e-7,"MEAN_MOTION_DDOT":0},{"OBJECT_NAME":"NOAA 13","OBJECT_ID":"1993-050A","EPOCH":"2026-03-19T06:36:58.243104","MEAN_MOTION":14.13639535,"ECCENTRICITY":0.00101107,"INCLINATION":98.6948,"RA_OF_ASC_NODE":25.7561,"ARG_OF_PERICENTER":32.0099,"MEAN_ANOMALY":328.1686,"EPHEMERIS_TYPE":0,"CLASSIFICATION_TYPE":"U","NORAD_CAT_ID":22739,"ELEMENT_SET_NO":999,"REV_AT_EPOCH":68067,"BSTAR":7.3140922e-5,"MEAN_MOTION_DOT":9.5e-7,"MEAN_MOTION_DDOT":0},{"OBJECT_NAME":"NOAA 14","OBJECT_ID":"1994-089A","EPOCH":"2026-03-19T05:31:44.517504","MEAN_MOTION":14.14657548,"ECCENTRICITY":0.00092373,"INCLINATION":98.5039,"RA_OF_ASC_NODE":51.9931,"ARG_OF_PERICENTER":349.406,"MEAN_ANOMALY":10.6918,"EPHEMERIS_TYPE":0,"CLASSIFICATION_TYPE":"U","NORAD_CAT_ID":23455,"ELEMENT_SET_NO":999,"REV_AT_EPOCH":61048,"BSTAR":4.8250428e-5,"MEAN_MOTION_DOT":5.1e-7,"MEAN_MOTION_DDOT":0},{"OBJECT_NAME":"NOAA 15","OBJECT_ID":"1998-030A","EPOCH":"2026-03-19T07:17:42.347904","MEAN_MOTION":14.27116317,"ECCENTRICITY":0.00091537,"INCLINATION":98.5152,"RA_OF_ASC_NODE":101.3338,"ARG_OF_PERICENTER":248.3622,"MEAN_ANOMALY":111.6585,"EPHEMERIS_TYPE":0,"CLASSIFICATION_TYPE":"U","NORAD_CAT_ID":25338,"ELEMENT_SET_NO":999,"REV_AT_EPOCH":44847,"BSTAR":6.3295213e-5,"MEAN_MOTION_DOT":1.12e-6,"MEAN_MOTION_DDOT":0},{"OBJECT_NAME":"NOAA 16","OBJECT_ID":"2000-055A","EPOCH":"2026-03-19T07:02:01.106304","MEAN_MOTION":14.13900835,"ECCENTRICITY":0.00101027,"INCLINATION":98.4696,"RA_OF_ASC_NODE":97.2951,"ARG_OF_PERICENTER":193.2828,"MEAN_ANOMALY":166.8081,"EPHEMERIS_TYPE":0,"CLASSIFICATION_TYPE":"U","NORAD_CAT_ID":26536,"ELEMENT_SET_NO":999,"REV_AT_EPOCH":61102,"BSTAR":7.0952153e-5,"MEAN_MOTION_DOT":9.4e-7,"MEAN_MOTION_DDOT":0}]
